{
    "Acquia, Inc": [
        {
            "AddressNumber": "600",
            "StreetName": "Congress",
            "StreetNamePostType": "Ave",
            "PlaceName": "Austin,",
            "StateName": "TX",
            "ZipCode": "78701",
            "CountryName": "States"
        },
        {
            "AddressNumber": "53",
            "StreetName": "State",
            "StreetNamePostType": "Street,",
            "OccupancyIdentifier": "10th",
            "OccupancyType": "Floor",
            "PlaceName": "Boston,",
            "StateName": "MA",
            "ZipCode": "02109",
            "CountryName": "States"
        },
        {
            "AddressNumber": "1120",
            "StreetNamePreDirectional": "NW",
            "StreetName": "Couch",
            "StreetNamePostType": "St.",
            "OccupancyType": "Suite",
            "OccupancyIdentifier": "550",
            "PlaceName": "Portland,",
            "StateName": "OR",
            "ZipCode": "97209",
            "CountryName": "States"
        },
        {
            "AddressNumber": "1775",
            "StreetName": "Tyson",
            "OccupancyType": "Suite",
            "OccupancyIdentifier": "235",
            "PlaceName": "McLean,",
            "StateName": "VA",
            "ZipCode": "22102",
            "StreetNamePostDirectional": "s",
            "StreetNamePostType": "Blvd",
            "CountryName": "States"
        },
        {
            "AddressNumber": "53",
            "StreetName": "State",
            "StreetNamePostType": "Street,",
            "OccupancyIdentifier": "10th",
            "OccupancyType": "Floor",
            "PlaceName": "Boston,",
            "StateName": "MA",
            "ZipCode": "02109"
        }
    ],
    "Act-On Software, Inc.": [
        {
            "AddressNumber": "121",
            "StreetNamePreDirectional": "SW",
            "StreetName": "Morrison",
            "PlaceName": "1600Portland,",
            "StateName": "OR",
            "ZipCode": "97204"
        }
    ],
    "Aria Systems, Inc.": [
        {
            "AddressNumber": "94111600",
            "StreetName": "Reed",
            "StreetNamePostType": "Road,",
            "OccupancyType": "Suite",
            "OccupancyIdentifier": "302",
            "PlaceName": "Broomall,",
            "StateName": "PA",
            "ZipCode": "19008"
        }
    ],
    "Automattic, Inc.": [
        {
            "AddressNumber": "60",
            "StreetName": "29th",
            "StreetNamePostType": "Street",
            "OccupancyIdentifier": "343",
            "PlaceName": "Francisco,",
            "StateName": "CA",
            "ZipCode": "94110",
            "CountryName": "States"
        }
    ],
    "Cloudwords, Inc.": [
        {
            "AddressNumber": "201",
            "StreetName": "California",
            "StreetNamePostType": "Street,",
            "OccupancyType": "Suite",
            "OccupancyIdentifier": "1350San",
            "PlaceName": "Francisco,",
            "StateName": "CA",
            "ZipCode": "94111"
        }
    ],
    "COGNITIVESCALE": [
        {
            "AddressNumber": "9500",
            "StreetName": "Arboretum",
            "StreetNamePostType": "Blvd,",
            "PlaceName": "AUSTIN,",
            "StateName": "TX",
            "ZipCode": "78759"
        }
    ],
    "CoreMedia AG": [
        {
            "AddressNumber": "1001",
            "StreetNamePreDirectional": "N.",
            "StreetName": "19th",
            "StreetNamePostType": "Street,",
            "OccupancyType": "Broadway,",
            "OccupancyIdentifier": "3rd",
            "PlaceName": "FloorOakland,",
            "StateName": "CA",
            "ZipCode": "94607"
        }
    ],
    "Crafter Software Corp.": [
        {
            "AddressNumber": "1800",
            "StreetName": "Bell",
            "PlaceName": "400Reston,",
            "StateName": "VA",
            "ZipCode": "20191"
        }
    ],
    "DNN Corp.": [
        {
            "AddressNumber": "401",
            "StreetName": "Congress",
            "StreetNamePostType": "Ave,",
            "OccupancyType": "Suite",
            "OccupancyIdentifier": "2650",
            "PlaceName": "Austin,",
            "StateName": "TX",
            "ZipCode": "78701,",
            "CountryName": "USA"
        }
    ],
    "EBSCO Industries, Inc.": [
        {
            "AddressNumber": "10",
            "StreetName": "Estes",
            "StreetNamePostType": "Street,",
            "PlaceName": "Ipswich,",
            "StateName": "MA",
            "ZipCode": "01938"
        }
    ],
    "Impelsys": [
        {
            "AddressNumber": "116",
            "StreetNamePreDirectional": "West",
            "StreetName": "23rd",
            "StreetNamePostType": "Street,",
            "OccupancyType": "Suite",
            "OccupancyIdentifier": "9536,",
            "PlaceName": "York,",
            "StateName": "NY",
            "ZipCode": "10011,",
            "CountryName": "USA"
        }
    ],
    "Kentico Software": [
        {
            "AddressNumber": "15",
            "StreetName": "Constitution",
            "StreetNamePostType": "Dr.,",
            "OccupancyType": "Suite",
            "OccupancyIdentifier": "2G",
            "PlaceName": "Bedford,",
            "StateName": "NH",
            "ZipCode": "03110",
            "CountryName": "States"
        }
    ],
    "MadCap Software, Inc.": [
        {
            "AddressNumber": "9191",
            "StreetName": "Centre",
            "StreetNamePostType": "Drive,",
            "OccupancyType": "Suite",
            "OccupancyIdentifier": "150",
            "PlaceName": "Diego,",
            "StateName": "California",
            "ZipCode": "92122"
        }
    ],
    "NewsCred": [
        {
            "AddressNumber": "400",
            "StreetNamePreDirectional": "W",
            "StreetName": "Boulder",
            "StreetNamePostType": "Rd",
            "OccupancyType": "Suite",
            "OccupancyIdentifier": "2500",
            "PlaceName": "Lafayette,",
            "StateName": "CO",
            "ZipCode": "80026"
        }
    ],
    "OneSpot": [
        {
            "AddressNumber": "401",
            "StreetName": "Congress",
            "StreetNamePostType": "Avenue,",
            "OccupancyType": "Suite",
            "OccupancyIdentifier": "2650Austin,",
            "StateName": "TX",
            "ZipCode": "78701"
        }
    ],
    "Splunk, Inc.": [
        {
            "AddressNumber": "270",
            "StreetName": "Brannan",
            "StreetNamePostType": "Street",
            "PlaceName": "Francisco,",
            "StateName": "CA",
            "ZipCode": "94107"
        }
    ],
    "TapClicks": [
        {
            "AddressNumber": "701",
            "StreetName": "DriveSuite",
            "OccupancyIdentifier": "330Wakefield,",
            "StateName": "MA",
            "ZipCode": "01880"
        }
    ],
    "Zoomin": [
        {
            "AddressNumber": "150",
            "StreetNamePreDirectional": "West",
            "StreetName": "28th",
            "StreetNamePostType": "St",
            "OccupancyIdentifier": "17th",
            "OccupancyType": "floor",
            "PlaceName": "York,",
            "StateName": "NY",
            "ZipCode": "10001"
        },
        {
            "AddressNumber": "150",
            "StreetNamePreDirectional": "West",
            "StreetName": "28th",
            "StreetNamePostType": "St,",
            "OccupancyIdentifier": "17th",
            "OccupancyType": "Floor",
            "PlaceName": "York,",
            "StateName": "NY",
            "ZipCode": "10001"
        }
    ]
}